{"type": "FeatureCollection", "features": [ {"type": "Feature", "properties": {"norad_id": 58662, "name": "TIANMU-1 21", "group": "weather", "lat": -82.3456128113724, "lon": -176.44906181671416, "alt_km": 474.94516745621604, "timestamp": "2025-12-19T16:54:43.893229+00:00", "meta": {"OBJECT_NAME": "TIANMU-1 21", "OBJECT_ID": "2023-208C", "EPOCH": "2025-12-19T06:19:17.341824", "MEAN_MOTION": 15.31685112, "ECCENTRICITY": 0.00061317, "INCLINATION": 97.4379, "RA_OF_ASC_NODE": 106.6798, "ARG_OF_PERICENTER": 232.6734, "MEAN_ANOMALY": 127.3949, "EPHEMERIS_TYPE": 0, "CLASSIFICATION_TYPE": "U", "NORAD_CAT_ID": 58662, "ELEMENT_SET_NO": 999, "REV_AT_EPOCH": 10999, "BSTAR": 0.00028372735, "MEAN_MOTION_DOT": 8.607e-05, "MEAN_MOTION_DDOT": 0}, "tle": {"line1": "1 58662U 23208C   25353.26339516  .00008607  00000+0  28373-3 0  9991", "line2": "2 58662  97.4379 106.6798 0006131 232.6734 127.3949 15.31685112109999"}}, "geometry": {"type": "Point", "coordinates": [-176.44906181671416, -82.3456128113724]}}, {"type": "Feature", "properties": {"norad_id": 58663, "name": "TIANMU-1 22", "group": "weather", "lat": 81.14874437209215, "lon": -18.177593139149703, "alt_km": 476.9274483240115, "timestamp": "2025-12-19T16:54:43.893245+00:00", "meta": {"OBJECT_NAME": "TIANMU-1 22", "OBJECT_ID": "2023-208D", "EPOCH": "2025-12-19T07:04:00.151680", "MEAN_MOTION": 15.27710671, "ECCENTRICITY": 0.00027201, "INCLINATION": 97.4388, "RA_OF_ASC_NODE": 104.3751, "ARG_OF_PERICENTER": 252.314, "MEAN_ANOMALY": 107.7803, "EPHEMERIS_TYPE": 0, "CLASSIFICATION_TYPE": "U", "NORAD_CAT_ID": 58663, "ELEMENT_SET_NO": 999, "REV_AT_EPOCH": 10983, "BSTAR": 0.00023569415, "MEAN_MOTION_DOT": 6.307e-05, "MEAN_MOTION_DDOT": 0}, "tle": {"line1": "1 58663U 23208D   25353.29444620  .00006307  00000+0  23569-3 0  9995", "line2": "2 58663  97.4388 104.3751 0002720 252.3140 107.7803 15.27710671109832"}}, "geometry": {"type": "Point", "coordinates": [-18.177593139149703, 81.14874437209215]}}, {"type": "Feature", "properties": {"norad_id": 58700, "name": "TIANMU-1 15", "group": "weather", "lat": 35.467276985187475, "lon": 0.505796802484836, "alt_km": 491.84684880365694, "timestamp": "2025-12-19T16:54:43.893264+00:00", "meta": {"OBJECT_NAME": "TIANMU-1 15", "OBJECT_ID": "2024-004A", "EPOCH": "2025-12-19T06:49:47.407008", "MEAN_MOTION": 15.24489191, "ECCENTRICITY": 0.00059435, "INCLINATION": 97.4621, "RA_OF_ASC_NODE": 174.7294, "ARG_OF_PERICENTER": 262.7385, "MEAN_ANOMALY": 97.3177, "EPHEMERIS_TYPE": 0, "CLASSIFICATION_TYPE": "U", "NORAD_CAT_ID": 58700, "ELEMENT_SET_NO": 999, "REV_AT_EPOCH": 10834, "BSTAR": 0.00021200149, "MEAN_MOTION_DOT": 5.139e-05, "MEAN_MOTION_DDOT": 0}, "tle": {"line1": "1 58700U 24004A   25353.28457647  .00005139  00000+0  21200-3 0  9996", "line2": "2 58700  97.4621 174.7294 0005943 262.7385  97.3177 15.24489191108343"}}, "geometry": {"type": "Point", "coordinates": [0.505796802484836, 35.467276985187475]}}, {"type": "Feature", "properties": {"norad_id": 58701, "name": "TIANMU-1 16", "group": "weather", "lat": -45.884892080968434, "lon": -13.232161045015012, "alt_km": 496.7335126171638, "timestamp": "2025-12-19T16:54:43.893283+00:00", "meta": {"OBJECT_NAME": "TIANMU-1 16", "OBJECT_ID": "2024-004B", "EPOCH": "2025-12-19T06:28:13.751040", "MEAN_MOTION": 15.24516126, "ECCENTRICITY": 0.00043097, "INCLINATION": 97.4561, "RA_OF_ASC_NODE": 174.0978, "ARG_OF_PERICENTER": 266.5754, "MEAN_ANOMALY": 93.4991, "EPHEMERIS_TYPE": 0, "CLASSIFICATION_TYPE": "U", "NORAD_CAT_ID": 58701, "ELEMENT_SET_NO": 999, "REV_AT_EPOCH": 10834, "BSTAR": 0.00021423783, "MEAN_MOTION_DOT": 5.198e-05, "MEAN_MOTION_DDOT": 0}, "tle": {"line1": "1 58701U 24004B   25353.26960360  .00005198  00000+0  21424-3 0  9999", "line2": "2 58701  97.4561 174.0978 0004309 266.5754  93.4991 15.24516126108346"}}, "geometry": {"type": "Point", "coordinates": [-13.232161045015012, -45.884892080968434]}}, {"type": "Feature", "properties": {"norad_id": 58702, "name": "TIANMU-1 17", "group": "weather", "lat": -47.59645841297623, "lon": -176.80670265153702, "alt_km": 497.2736886301809, "timestamp": "2025-12-19T16:54:43.893299+00:00", "meta": {"OBJECT_NAME": "TIANMU-1 17", "OBJECT_ID": "2024-004C", "EPOCH": "2025-12-19T07:40:17.503392", "MEAN_MOTION": 15.24560421, "ECCENTRICITY": 0.00034936, "INCLINATION": 97.4595, "RA_OF_ASC_NODE": 174.5611, "ARG_OF_PERICENTER": 268.2425, "MEAN_ANOMALY": 91.8412, "EPHEMERIS_TYPE": 0, "CLASSIFICATION_TYPE": "U", "NORAD_CAT_ID": 58702, "ELEMENT_SET_NO": 999, "REV_AT_EPOCH": 10834, "BSTAR": 0.00021875578, "MEAN_MOTION_DOT": 5.316e-05, "MEAN_MOTION_DDOT": 0}, "tle": {"line1": "1 58702U 24004C   25353.31964703  .00005316  00000+0  21876-3 0  9994", "line2": "2 58702  97.4595 174.5611 0003493 268.2425  91.8412 15.24560421108347"}}, "geometry": {"type": "Point", "coordinates": [-176.80670265153702, -47.59645841297623]}}, {"type": "Feature", "properties": {"norad_id": 58703, "name": "TIANMU-1 18", "group": "weather", "lat": 42.58257750484263, "lon": 168.22386957724999, "alt_km": 490.1666564159714, "timestamp": "2025-12-19T16:54:43.893316+00:00", "meta": {"OBJECT_NAME": "TIANMU-1 18", "OBJECT_ID": "2024-004D", "EPOCH": "2025-12-19T07:16:21.125856", "MEAN_MOTION": 15.24545553, "ECCENTRICITY": 0.00028682, "INCLINATION": 97.4611, "RA_OF_ASC_NODE": 174.7412, "ARG_OF_PERICENTER": 266.7139, "MEAN_ANOMALY": 93.377, "EPHEMERIS_TYPE": 0, "CLASSIFICATION_TYPE": "U", "NORAD_CAT_ID": 58703, "ELEMENT_SET_NO": 999, "REV_AT_EPOCH": 10834, "BSTAR": 0.00020148002, "MEAN_MOTION_DOT": 4.888e-05, "MEAN_MOTION_DDOT": 0}, "tle": {"line1": "1 58703U 24004D   25353.30302229  .00004888  00000+0  20148-3 0  9997", "line2": "2 58703  97.4611 174.7412 0002868 266.7139  93.3770 15.24545553108341"}}, "geometry": {"type": "Point", "coordinates": [168.22386957724999, 42.58257750484263]}}, {"type": "Feature", "properties": {"norad_id": 58990, "name": "INSAT-3DS", "group": "weather", "lat": -0.0025501639571426944, "lon": 64.32930441218802, "alt_km": 35790.11593304588, "timestamp": "2025-12-19T16:54:43.893348+00:00", "meta": {"OBJECT_NAME": "INSAT-3DS", "OBJECT_ID": "2024-033A", "EPOCH": "2025-12-18T15:23:52.092960", "MEAN_MOTION": 1.00272396, "ECCENTRICITY": 0.00010988, "INCLINATION": 0.0507, "RA_OF_ASC_NODE": 110.1825, "ARG_OF_PERICENTER": 160.7703, "MEAN_ANOMALY": 129.6153, "EPHEMERIS_TYPE": 0, "CLASSIFICATION_TYPE": "U", "NORAD_CAT_ID": 58990, "ELEMENT_SET_NO": 999, "REV_AT_EPOCH": 4525, "BSTAR": 0, "MEAN_MOTION_DOT": -1.31e-06, "MEAN_MOTION_DDOT": 0}, "tle": {"line1": "1 58990U 24033A   25352.64157515 -.00000131  00000+0  00000+0 0  9998", "line2": "2 58990   0.0507 110.1825 0001098 160.7703 129.6153  1.00272396 45258"}}, "geometry": {"type": "Point", "coordinates": [64.32930441218802, -0.0025501639571426944]}}, {"type": "Feature", "properties": {"norad_id": 59051, "name": "METEOR-M2 4", "group": "weather", "lat": -1.9563218815452106, "lon": 130.20567721201766, "alt_km": 824.8149106998544, "timestamp": "2025-12-19T16:54:43.893370+00:00", "meta": {"OBJECT_NAME": "METEOR-M2 4", "OBJECT_ID": "2024-039A", "EPOCH": "2025-12-19T07:37:06.320064", "MEAN_MOTION": 14.22402252, "ECCENTRICITY": 0.00066843, "INCLINATION": 98.6775, "RA_OF_ASC_NODE": 310.1234, "ARG_OF_PERICENTER": 339.2893, "MEAN_ANOMALY": 20.8013, "EPHEMERIS_TYPE": 0, "CLASSIFICATION_TYPE": "U", "NORAD_CAT_ID": 59051, "ELEMENT_SET_NO": 999, "REV_AT_EPOCH": 9369, "BSTAR": 2.0209786e-05, "MEAN_MOTION_DOT": 1e-08, "MEAN_MOTION_DDOT": 0}, "tle": {"line1": "1 59051U 24039A   25353.31743426  .00000001  00000+0  20210-4 0  9995", "line2": "2 59051  98.6775 310.1234 0006684 339.2893  20.8013 14.22402252 93694"}}, "geometry": {"type": "Point", "coordinates": [130.20567721201766, -1.9563218815452106]}}, {"type": "Feature", "properties": {"norad_id": 60133, "name": "GOES 19", "group": "weather", "lat": -0.0028307920404282657, "lon": -92.97741270762145, "alt_km": 35783.81871222441, "timestamp": "2025-12-19T16:54:43.893388+00:00", "meta": {"OBJECT_NAME": "GOES 19", "OBJECT_ID": "2024-119A", "EPOCH": "2025-12-19T06:03:30.680352", "MEAN_MOTION": 1.00271302, "ECCENTRICITY": 0.00010607, "INCLINATION": 0.0102, "RA_OF_ASC_NODE": 99.8714, "ARG_OF_PERICENTER": 224.193, "MEAN_ANOMALY": 139.7289, "EPHEMERIS_TYPE": 0, "CLASSIFICATION_TYPE": "U", "NORAD_CAT_ID": 60133, "ELEMENT_SET_NO": 999, "REV_AT_EPOCH": 516, "BSTAR": 0, "MEAN_MOTION_DOT": -2.24e-06, "MEAN_MOTION_DDOT": 0}, "tle": {"line1": "1 60133U 24119A   25353.25243843 -.00000224  00000+0  00000+0 0  9996", "line2": "2 60133   0.0102  99.8714 0001060 224.1930 139.7289  1.00271302  5161"}}, "geometry": {"type": "Point", "coordinates": [-92.97741270762145, -0.0028307920404282657]}}, {"type": "Feature", "properties": {"norad_id": 65815, "name": "FENGYUN 3H", "group": "weather", "lat": -1.8246121239849542, "lon": -66.57790523729946, "alt_km": 828.9478088068445, "timestamp": "2025-12-19T16:54:43.893408+00:00", "meta": {"OBJECT_NAME": "FENGYUN 3H", "OBJECT_ID": "2025-219A", "EPOCH": "2025-12-19T06:46:25.041792", "MEAN_MOTION": 14.19906352, "ECCENTRICITY": 7.122e-05, "INCLINATION": 98.6593, "RA_OF_ASC_NODE": 292.7307, "ARG_OF_PERICENTER": 103.8815, "MEAN_ANOMALY": 256.2441, "EPHEMERIS_TYPE": 0, "CLASSIFICATION_TYPE": "U", "NORAD_CAT_ID": 65815, "ELEMENT_SET_NO": 999, "REV_AT_EPOCH": 1185, "BSTAR": 3.9521052e-05, "MEAN_MOTION_DOT": 4.1e-07, "MEAN_MOTION_DDOT": 0}, "tle": {"line1": "1 65815U 25219A   25353.28223428  .00000041  00000+0  39521-4 0  9991", "line2": "2 65815  98.6593 292.7307 0000712 103.8815 256.2441 14.19906352 11852"}}, "geometry": {"type": "Point", "coordinates": [-66.57790523729946, -1.8246121239849542]}}]}